STARLINK-32118          
1 60280U 24132C   26068.36989792  .00000162  00000+0  17585-4 0  9991
2 60280  53.1609  53.7564 0001271  82.9335 277.1810 15.30196864 91518
FLOCK 4G-13             
1 62621U 25009N   26068.70638971  .00053076  00000+0  16695-2 0  9995
2 62621  97.4019 151.0918 0003801 292.7207  67.3633 15.32770015 63700
